[{"OBJECT_NAME":"BUFENG 1A","OBJECT_ID":"2019-032A","EPOCH":"2026-03-09T22:03:27.507168","MEAN_MOTION":15.26012088,"ECCENTRICITY":0.00054719,"INCLINATION":44.9758,"RA_OF_ASC_NODE":238.6688,"ARG_OF_PERICENTER":55.4463,"MEAN_ANOMALY":304.6935,"EPHEMERIS_TYPE":0,"CLASSIFICATION_TYPE":"U","NORAD_CAT_ID":44310,"ELEMENT_SET_NO":999,"REV_AT_EPOCH":37201,"BSTAR":0.00062413703,"MEAN_MOTION_DOT":0.00016103,"MEAN_MOTION_DDOT":0},{"OBJECT_NAME":"ATLAS CENTAUR 2 DEB","OBJECT_ID":"1963-047H","EPOCH":"2026-03-09T12:19:05.186208","MEAN_MOTION":13.85184807,"ECCENTRICITY":0.06358941,"INCLINATION":30.4264,"RA_OF_ASC_NODE":268.0385,"ARG_OF_PERICENTER":278.88,"MEAN_ANOMALY":74.0363,"EPHEMERIS_TYPE":0,"CLASSIFICATION_TYPE":"U","NORAD_CAT_ID":739,"ELEMENT_SET_NO":999,"REV_AT_EPOCH":12755,"BSTAR":7.4246784e-5,"MEAN_MOTION_DOT":5.52e-6,"MEAN_MOTION_DDOT":0}]
